GSAT0225 (GALILEO 29)   
1 59598U 24079A   26193.92364229 -.00000032  00000+0  00000+0 0  9990
2 59598  55.1342 100.3610 0000576 333.1665 207.5558  1.70473595 13753
GSAT0227 (GALILEO 30)   
1 59600U 24079C   26194.98582021 -.00000030  00000+0  00000+0 0  9991
2 59600  55.1303 100.3294 0002845  67.2681 292.7822  1.70473814 13828
GSAT0232 (GALILEO 32)   
1 61182U 24167A   26195.27548545  .00000067  00000+0  00000+0 0  9992
2 61182  55.1796 220.5702 0006487 231.1885 162.2574  1.70474020 11345
GSAT0226 (GALILEO 31)   
1 61183U 24167B   26193.31376557  .00000085  00000+0  00000+0 0  9998
2 61183  55.1789 220.6314 0003219 234.7446 126.0816  1.70473923 11281
BEIDOU-3 M25            
1 61186U 24168B   26195.36399887 -.00000067  00000+0  00000+0 0  9991
2 61186  54.4473 301.2975 0003298 291.6796 106.9368  1.86229814 12298
BEIDOU-3 M27            
1 61187U 24168C   26194.58014972 -.00000066  00000+0  00000+0 0  9993
2 61187  54.4435 301.3077 0000925  48.6459 319.4753  1.86229853  9750
NAVSTAR 83 (USA 440)    
1 62339U 24242A   26195.26425604 -.00000096  00000+0  00000+0 0  9993
2 62339  54.8366 333.0838 0017830   4.0205 356.7935  2.00571876 11809
QZS-6 (MICHIBIKI-6)     
1 62876U 25023A   26195.60484997 -.00000239  00000+0  00000+0 0  9994
2 62876   0.0104 356.5330 0001803 135.8076 108.3029  1.00267117  5220
COSMOS 2584 [GLONASS-K2]
1 63130U 25042A   26189.25686521 -.00000024  00000+0  00000+0 0  9992
2 63130  65.0959  72.0857 0005748 218.1439 141.8762  2.13103813 10495
NAVSTAR 84 (USA 545)    
1 64202U 25116A   26195.00852948 -.00000064  00000+0  00000+0 0  9997
2 64202  55.2517  30.0518 0008416 339.4532  19.8272  2.00573709  8400
COSMOS 2596 [GLONASS-K1]
1 65590U 25206B   26194.33478170 -.00000064  00000+0  00000+0 0  9994
2 65590  64.6178 314.0753 0011126 307.7533 103.9433  2.13100618  6473
GSAT0233 (GALILEO 33)   
1 67160U 25302A   26195.03920554 -.00000031  00000+0  00000+0 0  9996
2 67160  54.3495 101.3657 0000879 156.8538 279.4262  1.70473741  3587
GSAT0234 (GALILEO 34)   
1 67162U 25302C   26195.51064653 -.00000030  00000+0  00000+0 0  9999
2 67162  54.3528 101.3514 0002302 321.0338 224.6861  1.70473847  3646
NAVSTAR 85 (USA 581)    
1 67588U 26017A   26194.12253330 -.00000033  00000+0  00000+0 0  9996
2 67588  55.1047  87.7143 0021566 259.9513  99.8468  2.00570504432132
NAVSTAR 86 (USA 585)    
1 68791U 26087A   26195.44716727  .00000062  00000+0  00000+0 0  9991
2 68791  54.9618 206.7096 0020475 106.1812 335.7978  2.00572517  1386
